NOAA 1                  
1 04793U 70106A   24234.76092594 -.00000007  00000+0  22512-3 0  9996
2 04793 101.4412 284.6466 0031445 207.8742 268.0336 12.54031391457408
NOAA 2 (ITOS-D)         
1 06235U 72082A   24234.86379458 -.00000025  00000+0  13694-3 0  9993
2 06235 102.0190 234.5986 0004142   2.2182  61.4256 12.53184630371732
NOAA 3                  
1 06920U 73086A   24235.24709988 -.00000032  00000+0  10417-3 0  9995
2 06920 102.2804 231.8178 0006129 265.2983 105.5392 12.40370312299760
NOAA 4                  
1 07529U 74089A   24234.90738438 -.00000034  00000+0  76159-4 0  9997
2 07529 101.9920 229.7820 0009253  25.3445 339.7534 12.53183025276312
NOAA 5                  
1 09057U 76077A   24235.21652381 -.00000038  00000+0  61028-4 0  9994
2 09057 102.2135 208.5406 0009959 112.3954 258.2515 12.37803957172541
TIROS N                 
1 11060U 78096A   24234.86179897  .00000588  00000+0  30227-3 0  9995
2 11060  98.5281 272.7906 0010605  12.7098 347.4344 14.18891681584525
NOAA 6                  
1 11416U 79057A   24234.81420073  .00001078  00000+0  39668-3 0  9991
2 11416  98.6277 255.9567 0011187  69.4681 290.7703 14.34647087355662
NOAA 7                  
1 12553U 81059A   24234.76474118  .00000260  00000+0  15000-3 0  9998
2 12553  98.8885 294.1342 0011595  12.9194 347.2275 14.17562733230606
NOAA 8                  
1 13923U 83022A   24234.87835032  .00000634  00000+0  26637-3 0  9993
2 13923  98.7333 234.9694 0015751  44.5380 315.7065 14.29319573156152
NOAA 9                  
1 15427U 84123A   24234.85880332  .00000520  00000+0  28349-3 0  9994
2 15427  99.1217 233.9163 0015757  71.9500 351.5841 14.16657000 49341
NOAA 10                 
1 16969U 86073A   24234.89037441  .00000582  00000+0  24890-3 0  9996
2 16969  98.6462 220.2232 0012908 135.7271 236.0683 14.28689418974534
NOAA 11                 
1 19531U 88089A   24235.16453675  .00000309  00000+0  17928-3 0  9996
2 19531  98.5241 194.8393 0012032  49.0097 311.2116 14.15574291853778
NOAA 12                 
1 21263U 91032A   24235.21669309  .00000419  00000+0  19199-3 0  9996
2 21263  98.5627 224.8581 0013983 163.9823 196.1802 14.26367850730558
NOAA 13                 
1 22739U 93050A   24234.84666428  .00000468  00000+0  27232-3 0  9995
2 22739  98.6111 189.8734 0008605 221.1684 138.8840 14.13272112599520
NOAA 14                 
1 23455U 94089A   24234.80883497  .00000247  00000+0  15038-3 0  9993
2 23455  98.4367 227.1889 0009242 186.5558 173.5497 14.14429324529275
NOAA 15                 
1 25338U 98030A   24235.16354855  .00000602  00000+0  26664-3 0  9998
2 25338  98.5664 260.9066 0011292 128.3744 231.8453 14.26674483366842
NOAA 16                 
1 26536U 00055A   24234.83873662  .00000321  00000+0  19222-3 0  9994
2 26536  98.5275 271.4223 0011327  52.2695 307.9503 14.13625411529858
NOAA 17                 
1 27453U 02032A   24234.97202087  .00000671  00000+0  30186-3 0  9992
2 27453  98.7670 185.5427 0012730 115.0914 245.1588 14.25659004152328
NOAA 18                 
1 28654U 05018A   24235.19166373  .00000557  00000+0  32042-3 0  9991
2 28654  98.8714 311.6023 0013451 233.3258 126.6679 14.13294782992581
NOAA 19                 
1 33591U 09005A   24235.15254041  .00000559  00000+0  32314-3 0  9997
2 33591  99.0422 291.6348 0014834 105.9286 254.3521 14.13088100800942
SUOMI NPP               
1 37849U 11061A   24235.15748973  .00000358  00000+0  19040-3 0  9992
2 37849  98.7231 172.1504 0002032  80.0966 280.0439 14.19555280664225
NOAA 20 (JPSS-1)        
1 43013U 17073A   24235.17429154  .00000316  00000+0  17029-3 0  9999
2 43013  98.7073 171.9937 0002170  59.8984 300.2407 14.19567280350262
NOAA 21 (JPSS-2)        
1 54234U 22150A   24234.85782663  .00000398  00000+0  20953-3 0  9999
2 54234  98.7527 171.9865 0000938  42.5934 317.5314 14.19556090 92298
